GLOBALSTAR M075 [+]     
1 37192U 10054E   24007.11953444 -.00000088  00000+0  87116-4 0  9999
2 37192  51.9979 346.3464 0000300  82.2092 357.8114 12.62268915609815
GLOBALSTAR M073 [+]     
1 37193U 10054F   24006.88137574 -.00000080  00000+0  13029-3 0  9994
2 37193  52.0051 260.4860 0000850  62.9525  16.4253 12.62271107611240
GLOBALSTAR M083 [+]     
1 37739U 11033A   24006.90090149 -.00000066  00000+0  21156-3 0  9991
2 37739  51.9832 209.8768 0001185  94.3591  13.9020 12.62264807580269
GLOBALSTAR M088 [+]     
1 37740U 11033B   24006.81048608 -.00000115  00000+0 -62845-4 0  9993
2 37740  51.9731 116.0847 0001052 129.9185  47.8316 12.62269048575791
GLOBALSTAR M091 [+]     
1 37741U 11033C   24007.18465459 -.00000109  00000+0 -28303-4 0  9996
2 37741  52.0006  77.5591 0000904 144.2724 233.6934 12.62269979576896
GLOBALSTAR M085 [+]     
1 37742U 11033D   24006.48721757 -.00000100  00000+0  19954-4 0  9997
2 37742  51.9885  31.1887 0000580 145.7350   1.3130 12.62266268577050
GLOBALSTAR M081 [+]     
1 37743U 11033E   24007.37489240 -.00000090  00000+0  78146-4 0  9991
2 37743  51.9977  30.9471 0000481 164.8178 298.1712 12.62268151577694
GLOBALSTAR M089 [+]     
1 37744U 11033F   24007.34501807 -.00000088  00000+0  86085-4 0  9991
2 37744  51.9958 345.3647 0000315  19.1432 128.5999 12.62270956578402
